[{"OBJECT_NAME":"CUBESAT XI-IV (CO-57)","OBJECT_ID":"2003-031J","EPOCH":"2026-03-09T22:11:01.387104","MEAN_MOTION":14.23561441,"ECCENTRICITY":0.00104004,"INCLINATION":98.681,"RA_OF_ASC_NODE":78.5124,"ARG_OF_PERICENTER":128.1826,"MEAN_ANOMALY":232.0291,"EPHEMERIS_TYPE":0,"CLASSIFICATION_TYPE":"U","NORAD_CAT_ID":27848,"ELEMENT_SET_NO":999,"REV_AT_EPOCH":17725,"BSTAR":0.00017577502,"MEAN_MOTION_DOT":3.57e-6,"MEAN_MOTION_DDOT":0},{"OBJECT_NAME":"CZ-6A DEB","OBJECT_ID":"2024-140XS","EPOCH":"2026-03-09T13:57:12.801888","MEAN_MOTION":14.24690526,"ECCENTRICITY":0.0049931,"INCLINATION":88.9987,"RA_OF_ASC_NODE":285.8333,"ARG_OF_PERICENTER":154.3538,"MEAN_ANOMALY":206.0148,"EPHEMERIS_TYPE":0,"CLASSIFICATION_TYPE":"U","NORAD_CAT_ID":61401,"ELEMENT_SET_NO":999,"REV_AT_EPOCH":7763,"BSTAR":0.0018433,"MEAN_MOTION_DOT":4.357e-5,"MEAN_MOTION_DDOT":0}]
